
    {
      "objectName": "ONEWEB-0689",
      "objectId": "2024-188D",
      "noradId": 61597,
      "epochUtc": "2026-03-16T04:26:26.483136Z",
      "meanMotionRevPerDay": 13.11418055,
      "eccentricity": 0.00020375,
      "inclinationDeg": 87.8891,
      "raanDeg": 39.5249,
      "argPerigeeDeg": 72.8791,
      "meanAnomalyDeg": 287.256,
      "bstar": 0.0012875316,
      "meanMotionDot": 0.00000469,
      "meanMotionDdot": 0,
      "elementSetNo": 999,
      "revAtEpoch": 7226
    },
    {
      "objectName": "ONEWEB-0697",
      "objectId": "2024-188K",
      "noradId": 61603,
      "epochUtc": "2026-03-16T03:25:23.832480Z",
      "meanMotionRevPerDay": 13.114149,
      "eccentricity": 0.00026756,
      "inclinationDeg": 87.8869,
      "raanDeg": 39.5655,
      "argPerigeeDeg": 81.9024,
      "meanAnomalyDeg": 278.2407,
      "bstar": -0.00060970559,
      "meanMotionDot": -0.00000203,
      "meanMotionDdot": 0,
      "elementSetNo": 999,
      "revAtEpoch": 7225
    },
    {
      "objectName": "ONEWEB-0702",
      "objectId": "2024-188Q",
      "noradId": 61608,
      "epochUtc": "2026-03-16T03:59:33.036576Z",
      "meanMotionRevPerDay": 13.11416949,
      "eccentricity": 0.00028856,
      "inclinationDeg": 87.8893,
      "raanDeg": 39.4649,
      "argPerigeeDeg": 76.0704,
      "meanAnomalyDeg": 284.0744,
      "bstar": -0.001816624,
      "meanMotionDot": -0.00000631,
      "meanMotionDdot": 0,
      "elementSetNo": 999,
      "revAtEpoch": 7229
    }