ONEWEB-0689             
1 61597U 24188D   26075.18502874  .00000469  00000+0  12875-2 0  9999
2 61597  87.8891  39.5249 0002037  72.8791 287.2560 13.11418055 72265
ONEWEB-0697             
1 61603U 24188K   26075.14263695 -.00000203  00000+0 -60971-3 0  9997
2 61603  87.8869  39.5655 0002675  81.9024 278.2407 13.11414900 72251
ONEWEB-0702             
1 61608U 24188Q   26075.16635459 -.00000631  00000+0 -18166-2 0  9998
2 61608  87.8893  39.4649 0002885  76.0704 284.0744 13.11416949 72296
